[{"OBJECT_NAME":"HEAD-1","OBJECT_ID":"2017-072B","EPOCH":"2026-03-10T00:09:55.710720","MEAN_MOTION":14.28734947,"ECCENTRICITY":0.0011073,"INCLINATION":98.9629,"RA_OF_ASC_NODE":84.8369,"ARG_OF_PERICENTER":82.9382,"MEAN_ANOMALY":277.3057,"EPHEMERIS_TYPE":0,"CLASSIFICATION_TYPE":"U","NORAD_CAT_ID":43011,"ELEMENT_SET_NO":999,"REV_AT_EPOCH":43319,"BSTAR":0.00021004086,"MEAN_MOTION_DOT":4.82e-6,"MEAN_MOTION_DDOT":0},{"OBJECT_NAME":"CZ-6A DEB","OBJECT_ID":"2024-140MA","EPOCH":"2026-03-09T13:52:00.344928","MEAN_MOTION":14.57677332,"ECCENTRICITY":0.0127216,"INCLINATION":88.9606,"RA_OF_ASC_NODE":279.4316,"ARG_OF_PERICENTER":237.8562,"MEAN_ANOMALY":121.0255,"EPHEMERIS_TYPE":0,"CLASSIFICATION_TYPE":"U","NORAD_CAT_ID":60975,"ELEMENT_SET_NO":999,"REV_AT_EPOCH":8258,"BSTAR":0.00032943,"MEAN_MOTION_DOT":1.697e-5,"MEAN_MOTION_DDOT":0}]
